STARLINK-31681          
1 59746U 24090S   26068.57999602 -.00000958  00000+0 -25270-4 0  9998
2 59746  43.0005 177.1655 0001270 261.5007  98.5701 15.27594916103506
TRANSPORTER-12 OBJECT BA
1 62657U 25009BA  26068.70118713  .00011330  00000+0  42733-3 0  9991
2 62657  97.3985 151.1390 0000403 234.6623 125.4579 15.27214003 63739
